NORAD_CAT_ID,OBJECT_NAME,OBJECT_TYPE,EPOCH,MEAN_MOTION,ECCENTRICITY,INCLINATION,RA_OF_ASC_NODE,ARG_OF_PERICENTER,MEAN_ANOMALY,BSTAR,MEAN_MOTION_DOT,MEAN_MOTION_DDOT,TLE_LINE0,TLE_LINE1,TLE_LINE2,SEMIMAJOR_AXIS,PERIOD,APOGEE,PERIGEE,DECAYED
54164.0,STARLINK-5278,PAYLOAD,2023-10-25 09:29:15,15.08842319,0.0001674,53.2174,293.2754,93.0877,267.0307,8.8868e-05,1.127e-05,0.0,0 STARLINK-5278,1 54164U 22141H   23298.39531861  .00001127  00000-0  88868-4 0  9993,2 54164  53.2174 293.2754 0001674  93.0877 267.0307 15.08842319 55071,6917.873,95.437,540.896,538.58,0.0
54164.0,STARLINK-5278,PAYLOAD,2023-10-26 09:20:01,15.08857583,0.0001762,53.2173,288.8133,98.4953,261.6239,-4.7426e-05,-1.043e-05,0.0,0 STARLINK-5278,1 54164U 22141H   23299.38890932 -.00001043  00000-0 -47426-4 0  9994,2 54164  53.2173 288.8133 0001762  98.4953 261.6239 15.08857583 55223,6917.827,95.436,540.911,538.473,0.0
54164.0,STARLINK-5278,PAYLOAD,2023-10-27 04:24:39,15.08843493,0.0001611,53.2165,285.2455,97.7886,262.3289,0.00010257,1.345e-05,0.0,0 STARLINK-5278,1 54164U 22141H   23300.18379427  .00001345  00000-0  10257-3 0  9990,2 54164  53.2165 285.2455 0001611  97.7886 262.3289 15.08843493 55343,6917.87,95.437,540.849,538.62,0.0
54164.0,STARLINK-5278,PAYLOAD,2023-10-27 06:00:02,15.08848709,0.0001605,53.2171,284.9469,98.389,261.7285,0.00014029,1.946e-05,0.0,0 STARLINK-5278,1 54164U 22141H   23300.25003008  .00001946  00000-0  14029-3 0  9995,2 54164  53.2171 284.9469 0001605  98.3890 261.7285 15.08848709 55351,6917.854,95.437,540.829,538.608,0.0
54164.0,STARLINK-5278,PAYLOAD,2023-10-27 15:32:21,15.08844407,0.0001373,53.2157,283.1648,98.4644,261.6503,8.1034e-05,1.002e-05,0.0,0 STARLINK-5278,1 54164U 22141H   23300.64747247  .00001002  00000-0  81034-4 0  9992,2 54164  53.2157 283.1648 0001373  98.4644 261.6503 15.08844407 55415,6917.867,95.437,540.682,538.782,0.0
54164.0,STARLINK-5278,PAYLOAD,2023-10-27 23:29:18,15.08835591,0.000201,53.2168,281.6781,99.0671,261.0549,4.8815e-06,-2.11e-06,0.0,0 STARLINK-5278,1 54164U 22141H   23300.97868197 -.00000211  00000-0  48815-5 0  9999,2 54164  53.2168 281.6781 0002010  99.0671 261.0549 15.08835591 55467,6917.894,95.438,541.149,538.368,0.0
54164.0,STARLINK-5278,PAYLOAD,2023-10-28 09:01:36,15.08837645,0.0001551,53.2153,279.8951,93.2536,266.8633,-5.1873e-05,-1.113e-05,0.0,0 STARLINK-5278,1 54164U 22141H   23301.37611786 -.00001113  00000-0 -51873-4 0  9994,2 54164  53.2153 279.8951 0001551  93.2536 266.8633 15.08837645 55520,6917.888,95.438,540.826,538.68,0.0
54164.0,STARLINK-5278,PAYLOAD,2023-10-28 15:23:09,15.08835211,0.0001551,53.2153,278.7053,92.3399,267.7771,-5.2856e-05,-1.129e-05,0.0,0 STARLINK-5278,1 54164U 22141H   23301.64108047 -.00001129  00000-0 -52856-4 0  9994,2 54164  53.2153 278.7053 0001551  92.3399 267.7771 15.08835211 55562,6917.895,95.438,540.833,538.687,0.0
54164.0,STARLINK-5278,PAYLOAD,2023-10-29 04:06:14,15.08844857,0.0001514,53.215,276.3249,109.1992,250.9164,0.00019464,2.811e-05,0.0,0 STARLINK-5278,1 54164U 22141H   23302.17099785  .00002811  00000-0  19464-3 0  9995,2 54164  53.2150 276.3249 0001514 109.1992 250.9164 15.08844857 55640,6917.866,95.437,540.778,538.683,0.0
54164.0,STARLINK-5278,PAYLOAD,2023-10-29 05:41:37,15.08849083,0.0001649,53.2153,276.0291,103.3535,256.7641,0.00034636,5.23e-05,0.0,0 STARLINK-5278,1 54164U 22141H   23302.23723830  .00005230  00000-0  34636-3 0  9993,2 54164  53.2153 276.0291 0001649 103.3535 256.7641 15.08849083 55656,6917.853,95.437,540.858,538.577,0.0
54164.0,STARLINK-5278,PAYLOAD,2023-10-29 21:35:29,15.08836829,0.0002071,53.2167,273.0547,84.6805,275.4423,0.00022114,3.233e-05,0.0,0 STARLINK-5278,1 54164U 22141H   23302.89964636  .00003233  00000-0  22114-3 0  9995,2 54164  53.2167 273.0547 0002071  84.6805 275.4423 15.08836829 55754,6917.89,95.438,541.188,538.322,0.0
54164.0,STARLINK-5278,PAYLOAD,2023-10-30 03:57:01,15.08836316,0.000197,53.2163,271.8661,83.9847,276.1369,9.9608e-05,1.297e-05,0.0,0 STARLINK-5278,1 54164U 22141H   23303.16460634  .00001297  00000-0  99608-4 0  9996,2 54164  53.2163 271.8661 0001970  83.9847 276.1369 15.08836316 55790,6917.892,95.438,541.119,538.394,0.0
54164.0,STARLINK-5278,PAYLOAD,2023-10-30 08:43:11,15.08840731,0.0001788,53.2157,270.9731,79.959,280.1604,0.00019726,2.853e-05,0.0,0 STARLINK-5278,1 54164U 22141H   23303.36332523  .00002853  00000-0  19726-3 0  9994,2 54164  53.2157 270.9731 0001788  79.9590 280.1604 15.08840731 55825,6917.878,95.438,540.98,538.506,0.0
54164.0,STARLINK-5278,PAYLOAD,2023-10-31 05:23:12,15.08841669,0.0001596,53.2161,267.1061,97.6122,262.5051,0.00015042,2.107e-05,0.0,0 STARLINK-5278,1 54164U 22141H   23304.22444687  .00002107  00000-0  15042-3 0  9994,2 54164  53.2161 267.1061 0001596  97.6122 262.5051 15.08841669 55954,6917.875,95.437,540.844,538.636,0.0
54164.0,STARLINK-5278,PAYLOAD,2023-10-31 21:17:03,15.08839956,0.0001601,53.2162,264.1348,86.6011,273.5164,0.00020976,3.052e-05,0.0,0 STARLINK-5278,1 54164U 22141H   23304.88685087  .00003052  00000-0  20976-3 0  9999,2 54164  53.2162 264.1348 0001601  86.6011 273.5164 15.08839956 56057,6917.881,95.438,540.853,538.638,0.0
54164.0,STARLINK-5278,PAYLOAD,2023-11-01 03:38:36,15.08846117,0.0001534,53.2166,262.9437,92.5944,267.5223,0.00025921,3.84e-05,0.0,0 STARLINK-5278,1 54164U 22141H   23305.15180744  .00003840  00000-0  25921-3 0  9990,2 54164  53.2166 262.9437 0001534  92.5944 267.5223 15.08846117 56092,6917.862,95.437,540.788,538.665,0.0
54164.0,STARLINK-5278,PAYLOAD,2023-11-01 14:46:18,15.08842281,0.0001357,53.2159,260.8626,92.7752,267.3396,0.0001667,2.366e-05,0.0,0 STARLINK-5278,1 54164U 22141H   23305.61548795  .00002366  00000-0  16670-3 0  9998,2 54164  53.2159 260.8626 0001357  92.7752 267.3396 15.08842281 56168,6917.873,95.437,540.677,538.8,0.0
54164.0,STARLINK-5278,PAYLOAD,2023-11-01 21:07:50,15.08842587,0.0001564,53.2166,259.671,106.478,253.6384,0.00018376,2.638e-05,0.0,0 STARLINK-5278,1 54164U 22141H   23305.88044873  .00002638  00000-0  18376-3 0  9992,2 54164  53.2166 259.6710 0001564 106.4780 253.6384 15.08842587 56209,6917.872,95.437,540.819,538.656,0.0
54164.0,STARLINK-5278,PAYLOAD,2023-11-02 06:40:08,15.08856261,0.0001646,53.2179,257.888,99.5775,260.5403,0.0002584,3.829e-05,0.0,0 STARLINK-5278,1 54164U 22141H   23306.27788168  .00003829  00000-0  25840-3 0  9995,2 54164  53.2179 257.8880 0001646  99.5775 260.5403 15.08856261 56267,6917.831,95.437,540.834,538.557,0.0
54164.0,STARLINK-5278,PAYLOAD,2023-11-02 20:58:37,15.08843342,0.0001447,53.215,255.2131,86.2819,273.8339,0.00011706,1.576e-05,0.0,0 STARLINK-5278,1 54164U 22141H   23306.87404700  .00001576  00000-0  11706-3 0  9991,2 54164  53.2150 255.2131 0001447  86.2819 273.8339 15.08843342 56359,6917.87,95.437,540.736,538.734,0.0
54164.0,STARLINK-5278,PAYLOAD,2023-11-03 03:20:09,15.0884898,0.0001512,53.2156,254.0233,102.386,257.7302,0.00018378,2.639e-05,0.0,0 STARLINK-5278,1 54164U 22141H   23307.13900346  .00002639  00000-0  18378-3 0  9991,2 54164  53.2156 254.0233 0001512 102.3860 257.7302 15.08848980 56392,6917.853,95.437,540.764,538.672,0.0
54164.0,STARLINK-5278,PAYLOAD,2023-11-03 06:30:56,15.08852842,0.0001485,53.2158,253.4281,96.2386,263.8775,0.00025912,3.84e-05,0.0,0 STARLINK-5278,1 54164U 22141H   23307.27148181  .00003840  00000-0  25912-3 0  9994,2 54164  53.2158 253.4281 0001485  96.2386 263.8775 15.08852842 56410,6917.841,95.437,540.733,538.679,0.0
54164.0,STARLINK-5278,PAYLOAD,2023-11-04 03:10:57,15.08846998,0.0001434,53.2161,249.5634,90.6811,269.4345,0.00017183,2.448e-05,0.0,0 STARLINK-5278,1 54164U 22141H   23308.13260425  .00002448  00000-0  17183-3 0  9990,2 54164  53.2161 249.5634 0001434  90.6811 269.4345 15.08846998 56541,6917.859,95.437,540.716,538.732,0.0
54164.0,STARLINK-5278,PAYLOAD,2023-11-04 12:43:15,15.08842463,0.0001408,53.2163,247.7788,88.9584,271.1569,0.00018208,2.611e-05,0.0,0 STARLINK-5278,1 54164U 22141H   23308.53004541  .00002611  00000-0  18208-3 0  9990,2 54164  53.2163 247.7788 0001408  88.9584 271.1569 15.08842463 56609,6917.873,95.437,540.712,538.764,0.0
54164.0,STARLINK-5278,PAYLOAD,2023-11-05 03:01:44,15.08848915,0.0001559,53.2169,245.1044,101.9673,258.1494,0.00028108,4.189e-05,0.0,0 STARLINK-5278,1 54164U 22141H   23309.12620428  .00004189  00000-0  28108-3 0  9996,2 54164  53.2169 245.1044 0001559 101.9673 258.1494 15.08848915 56693,6917.853,95.437,540.797,538.64,0.0
54164.0,STARLINK-5278,PAYLOAD,2023-11-05 12:34:02,15.08844666,0.0001412,53.2163,243.3205,90.4976,269.6178,3.4547e-05,2.62e-06,0.0,0 STARLINK-5278,1 54164U 22141H   23309.52364357  .00000262  00000-0  34547-4 0  9999,2 54164  53.2163 243.3205 0001412  90.4976 269.6178 15.08844666 56754,6917.866,95.437,540.708,538.754,0.0
54164.0,STARLINK-5278,PAYLOAD,2023-11-06 02:52:29,15.08889556,0.0001453,53.2162,240.6431,95.6896,264.4262,0.00093484,0.00014641,0.0,0 STARLINK-5278,1 54164U 22141H   23310.11978442  .00014641  00000-0  93484-3 0  9992,2 54164  53.2162 240.6431 0001453  95.6896 264.4262 15.08889556 56841,6917.729,95.434,540.599,538.589,0.0
54164.0,STARLINK-5278,PAYLOAD,2023-11-06 12:24:48,15.08869053,0.0001681,53.2174,238.8611,78.2902,281.8279,0.00040049,6.097e-05,0.0,0 STARLINK-5278,1 54164U 22141H   23310.51722535  .00006097  00000-0  40049-3 0  9991,2 54164  53.2174 238.8611 0001681  78.2902 281.8279 15.08869053 56909,6917.792,95.436,540.819,538.494,0.0
54164.0,STARLINK-5278,PAYLOAD,2023-11-07 04:18:44,15.08772198,0.0001395,53.2154,235.8859,91.6781,268.4371,-0.0011194,-0.00018026,0.0,0 STARLINK-5278,1 54164U 22141H   23311.17968094 -.00018026  00000-0 -11194-2 0  9991,2 54164  53.2154 235.8859 0001395  91.6781 268.4371 15.08772198 57003,6918.088,95.442,540.918,538.988,0.0
54164.0,STARLINK-5278,PAYLOAD,2023-11-07 12:15:38,15.08831799,0.0001072,53.2163,234.3996,114.6096,245.5008,0.00024027,3.537e-05,0.0,0 STARLINK-5278,1 54164U 22141H   23311.51086491  .00003537  00000-0  24027-3 0  9990,2 54164  53.2163 234.3996 0001072 114.6096 245.5008 15.08831799 57057,6917.905,95.438,540.512,539.029,0.0
